[{"OBJECT_NAME":"SL-8 R/B","OBJECT_ID":"1991-006B","EPOCH":"2026-03-25T15:02:33.107712","MEAN_MOTION":13.77496589,"ECCENTRICITY":0.0022057,"INCLINATION":82.9451,"RA_OF_ASC_NODE":158.1977,"ARG_OF_PERICENTER":354.2912,"MEAN_ANOMALY":177.8199,"EPHEMERIS_TYPE":0,"CLASSIFICATION_TYPE":"U","NORAD_CAT_ID":21088,"ELEMENT_SET_NO":999,"REV_AT_EPOCH":76626,"BSTAR":6.8072558e-5,"MEAN_MOTION_DOT":8.3e-7,"MEAN_MOTION_DDOT":0},{"OBJECT_NAME":"OKEAN-3","OBJECT_ID":"1991-039A","EPOCH":"2026-03-25T08:54:50.531616","MEAN_MOTION":15.04897286,"ECCENTRICITY":0.00123686,"INCLINATION":82.5167,"RA_OF_ASC_NODE":321.6505,"ARG_OF_PERICENTER":278.5572,"MEAN_ANOMALY":81.4253,"EPHEMERIS_TYPE":0,"CLASSIFICATION_TYPE":"U","NORAD_CAT_ID":21397,"ELEMENT_SET_NO":999,"REV_AT_EPOCH":86739,"BSTAR":0.00013906011,"MEAN_MOTION_DOT":1.998e-5,"MEAN_MOTION_DDOT":0},{"OBJECT_NAME":"COSMOS 2151","OBJECT_ID":"1991-042A","EPOCH":"2026-03-25T13:24:13.369248","MEAN_MOTION":15.00168584,"ECCENTRICITY":0.0012791,"INCLINATION":82.4941,"RA_OF_ASC_NODE":68.3636,"ARG_OF_PERICENTER":14.1991,"MEAN_ANOMALY":345.959,"EPHEMERIS_TYPE":0,"CLASSIFICATION_TYPE":"U","NORAD_CAT_ID":21422,"ELEMENT_SET_NO":999,"REV_AT_EPOCH":86557,"BSTAR":0.00018075414,"MEAN_MOTION_DOT":2.287e-5,"MEAN_MOTION_DDOT":0},{"OBJECT_NAME":"SL-14 R/B","OBJECT_ID":"1991-042B","EPOCH":"2026-03-25T15:01:46.241760","MEAN_MOTION":14.81845153,"ECCENTRICITY":0.0016935,"INCLINATION":82.4952,"RA_OF_ASC_NODE":205.2407,"ARG_OF_PERICENTER":183.8608,"MEAN_ANOMALY":176.2478,"EPHEMERIS_TYPE":0,"CLASSIFICATION_TYPE":"U","NORAD_CAT_ID":21423,"ELEMENT_SET_NO":999,"REV_AT_EPOCH":85543,"BSTAR":5.7885995e-5,"MEAN_MOTION_DOT":4.82e-6,"MEAN_MOTION_DDOT":0},{"OBJECT_NAME":"ERS-1","OBJECT_ID":"1991-050A","EPOCH":"2026-03-25T08:05:38.764608","MEAN_MOTION":14.39460741,"ECCENTRICITY":0.00325145,"INCLINATION":98.787,"RA_OF_ASC_NODE":102.9646,"ARG_OF_PERICENTER":154.1369,"MEAN_ANOMALY":206.1452,"EPHEMERIS_TYPE":0,"CLASSIFICATION_TYPE":"U","NORAD_CAT_ID":21574,"ELEMENT_SET_NO":999,"REV_AT_EPOCH":81798,"BSTAR":0.00011398905,"MEAN_MOTION_DOT":3.11e-6,"MEAN_MOTION_DDOT":0},{"OBJECT_NAME":"ARIANE 40 R/B","OBJECT_ID":"1991-050F","EPOCH":"2026-03-25T03:25:50.295936","MEAN_MOTION":14.42904449,"ECCENTRICITY":0.00037439,"INCLINATION":98.1981,"RA_OF_ASC_NODE":135.7971,"ARG_OF_PERICENTER":46.7818,"MEAN_ANOMALY":313.3685,"EPHEMERIS_TYPE":0,"CLASSIFICATION_TYPE":"U","NORAD_CAT_ID":21610,"ELEMENT_SET_NO":999,"REV_AT_EPOCH":82122,"BSTAR":0.0001038184,"MEAN_MOTION_DOT":3.05e-6,"MEAN_MOTION_DDOT":0},{"OBJECT_NAME":"INTERCOSMOS 25","OBJECT_ID":"1991-086A","EPOCH":"2026-03-25T14:08:52.583136","MEAN_MOTION":12.12052533,"ECCENTRICITY":0.14866605,"INCLINATION":82.602,"RA_OF_ASC_NODE":300.3966,"ARG_OF_PERICENTER":82.6752,"MEAN_ANOMALY":294.0285,"EPHEMERIS_TYPE":0,"CLASSIFICATION_TYPE":"U","NORAD_CAT_ID":21819,"ELEMENT_SET_NO":999,"REV_AT_EPOCH":49861,"BSTAR":0.00026429376,"MEAN_MOTION_DOT":1.385e-5,"MEAN_MOTION_DDOT":0},{"OBJECT_NAME":"SL-8 R/B","OBJECT_ID":"1992-008B","EPOCH":"2026-03-25T10:18:54.910944","MEAN_MOTION":13.75969574,"ECCENTRICITY":0.00359287,"INCLINATION":82.9225,"RA_OF_ASC_NODE":256.066,"ARG_OF_PERICENTER":90.8398,"MEAN_ANOMALY":335.8197,"EPHEMERIS_TYPE":0,"CLASSIFICATION_TYPE":"U","NORAD_CAT_ID":21876,"ELEMENT_SET_NO":999,"REV_AT_EPOCH":71158,"BSTAR":-6.101703e-6,"MEAN_MOTION_DOT":1.0e-7,"MEAN_MOTION_DDOT":0},{"OBJECT_NAME":"SL-8 R/B","OBJECT_ID":"1992-020B","EPOCH":"2026-03-25T09:26:45.168576","MEAN_MOTION":13.75550415,"ECCENTRICITY":0.00276563,"INCLINATION":82.9311,"RA_OF_ASC_NODE":142.1023,"ARG_OF_PERICENTER":252.8584,"MEAN_ANOMALY":117.2304,"EPHEMERIS_TYPE":0,"CLASSIFICATION_TYPE":"U","NORAD_CAT_ID":21938,"ELEMENT_SET_NO":999,"REV_AT_EPOCH":70329,"BSTAR":1.2721871e-5,"MEAN_MOTION_DOT":2.7e-7,"MEAN_MOTION_DDOT":0},{"OBJECT_NAME":"USA 81","OBJECT_ID":"1992-023A","EPOCH":"2026-03-25T12:23:43.847808","MEAN_MOTION":14.32372917,"ECCENTRICITY":0.0001929,"INCLINATION":85.0054,"RA_OF_ASC_NODE":122.3082,"ARG_OF_PERICENTER":68.494,"MEAN_ANOMALY":291.6458,"EPHEMERIS_TYPE":0,"CLASSIFICATION_TYPE":"U","NORAD_CAT_ID":21949,"ELEMENT_SET_NO":999,"REV_AT_EPOCH":9705,"BSTAR":5.2891707e-5,"MEAN_MOTION_DOT":1.63e-6,"MEAN_MOTION_DDOT":0},{"OBJECT_NAME":"COSMOS 2219","OBJECT_ID":"1992-076A","EPOCH":"2026-03-25T03:41:54.151008","MEAN_MOTION":14.14092078,"ECCENTRICITY":0.00180942,"INCLINATION":71.0632,"RA_OF_ASC_NODE":345.744,"ARG_OF_PERICENTER":184.7398,"MEAN_ANOMALY":175.3556,"EPHEMERIS_TYPE":0,"CLASSIFICATION_TYPE":"U","NORAD_CAT_ID":22219,"ELEMENT_SET_NO":999,"REV_AT_EPOCH":72056,"BSTAR":-8.3460821e-5,"MEAN_MOTION_DOT":-2.06e-6,"MEAN_MOTION_DDOT":0},{"OBJECT_NAME":"SL-16 R/B","OBJECT_ID":"1992-076B","EPOCH":"2026-03-25T12:01:46.747200","MEAN_MOTION":14.16863713,"ECCENTRICITY":0.00106428,"INCLINATION":71.0003,"RA_OF_ASC_NODE":155.0699,"ARG_OF_PERICENTER":66.7709,"MEAN_ANOMALY":305.0722,"EPHEMERIS_TYPE":0,"CLASSIFICATION_TYPE":"U","NORAD_CAT_ID":22220,"ELEMENT_SET_NO":999,"REV_AT_EPOCH":72407,"BSTAR":6.2586911e-5,"MEAN_MOTION_DOT":7.8e-7,"MEAN_MOTION_DDOT":0},{"OBJECT_NAME":"COSMOS 2221","OBJECT_ID":"1992-080A","EPOCH":"2026-03-25T11:41:23.552160","MEAN_MOTION":14.96262442,"ECCENTRICITY":0.00153368,"INCLINATION":82.5006,"RA_OF_ASC_NODE":263.9439,"ARG_OF_PERICENTER":135.7275,"MEAN_ANOMALY":224.5177,"EPHEMERIS_TYPE":0,"CLASSIFICATION_TYPE":"U","NORAD_CAT_ID":22236,"ELEMENT_SET_NO":999,"REV_AT_EPOCH":78315,"BSTAR":0.00016738393,"MEAN_MOTION_DOT":1.919e-5,"MEAN_MOTION_DDOT":0},{"OBJECT_NAME":"SL-16 R/B","OBJECT_ID":"1992-093B","EPOCH":"2026-03-25T10:16:42.623904","MEAN_MOTION":14.15452517,"ECCENTRICITY":0.00063899,"INCLINATION":71.0234,"RA_OF_ASC_NODE":331.229,"ARG_OF_PERICENTER":278.2176,"MEAN_ANOMALY":81.8222,"EPHEMERIS_TYPE":0,"CLASSIFICATION_TYPE":"U","NORAD_CAT_ID":22285,"ELEMENT_SET_NO":999,"REV_AT_EPOCH":71538,"BSTAR":0.00018634363,"MEAN_MOTION_DOT":3.16e-6,"MEAN_MOTION_DDOT":0},{"OBJECT_NAME":"COSMOS 2228","OBJECT_ID":"1992-094A","EPOCH":"2026-03-25T15:02:13.944192","MEAN_MOTION":14.97268912,"ECCENTRICITY":0.00166906,"INCLINATION":82.5182,"RA_OF_ASC_NODE":222.0506,"ARG_OF_PERICENTER":246.2639,"MEAN_ANOMALY":113.6833,"EPHEMERIS_TYPE":0,"CLASSIFICATION_TYPE":"U","NORAD_CAT_ID":22286,"ELEMENT_SET_NO":999,"REV_AT_EPOCH":77844,"BSTAR":0.00018354665,"MEAN_MOTION_DOT":2.157e-5,"MEAN_MOTION_DDOT":0},{"OBJECT_NAME":"SL-16 R/B","OBJECT_ID":"1993-016B","EPOCH":"2026-03-25T12:58:55.338528","MEAN_MOTION":14.15305605,"ECCENTRICITY":0.00123475,"INCLINATION":71.0079,"RA_OF_ASC_NODE":181.8912,"ARG_OF_PERICENTER":293.6094,"MEAN_ANOMALY":66.3732,"EPHEMERIS_TYPE":0,"CLASSIFICATION_TYPE":"U","NORAD_CAT_ID":22566,"ELEMENT_SET_NO":999,"REV_AT_EPOCH":70441,"BSTAR":-5.9640233e-5,"MEAN_MOTION_DOT":-1.64e-6,"MEAN_MOTION_DDOT":0},{"OBJECT_NAME":"COSMOS 2242","OBJECT_ID":"1993-024A","EPOCH":"2026-03-25T09:57:40.034016","MEAN_MOTION":14.96613421,"ECCENTRICITY":0.00149457,"INCLINATION":82.5159,"RA_OF_ASC_NODE":251.6702,"ARG_OF_PERICENTER":250.8336,"MEAN_ANOMALY":109.1268,"EPHEMERIS_TYPE":0,"CLASSIFICATION_TYPE":"U","NORAD_CAT_ID":22626,"ELEMENT_SET_NO":999,"REV_AT_EPOCH":78274,"BSTAR":0.00019399272,"MEAN_MOTION_DOT":2.239e-5,"MEAN_MOTION_DDOT":0}]
