SL-8 R/B                
1 21088U 91006B   26084.62677208  .00000083  00000+0  68073-4 0  9991
2 21088  82.9451 158.1977 0022057 354.2912 177.8199 13.77496589766268
OKEAN-3                 
1 21397U 91039A   26084.37141819  .00001998  00000+0  13906-3 0  9996
2 21397  82.5167 321.6505 0012368 278.5572  81.4253 15.04897286867397
COSMOS 2151             
1 21422U 91042A   26084.55848807  .00002287  00000+0  18075-3 0  9994
2 21422  82.4941  68.3636 0012791  14.1991 345.9590 15.00168584865572
SL-14 R/B               
1 21423U 91042B   26084.62622965  .00000482  00000+0  57886-4 0  9997
2 21423  82.4952 205.2407 0016935 183.8608 176.2478 14.81845153855432
ERS-1                   
1 21574U 91050A   26084.33725422  .00000311  00000+0  11399-3 0  9992
2 21574  98.7870 102.9646 0032514 154.1369 206.1452 14.39460741817984
ARIANE 40 R/B           
1 21610U 91050F   26084.14294324  .00000305  00000+0  10382-3 0  9998
2 21610  98.1981 135.7971 0003743  46.7818 313.3685 14.42904449821227
INTERCOSMOS 25          
1 21819U 91086A   26084.58949749  .00001385  00000+0  26429-3 0  9992
2 21819  82.6020 300.3966 1486660  82.6752 294.0285 12.12052533498611
SL-8 R/B                
1 21876U 92008B   26084.42980221  .00000010  00000+0 -61017-5 0  9992
2 21876  82.9225 256.0660 0035928  90.8398 335.8197 13.75969574711587
SL-8 R/B                
1 21938U 92020B   26084.39357834  .00000027  00000+0  12722-4 0  9994
2 21938  82.9311 142.1023 0027656 252.8584 117.2304 13.75550415703297
USA 81                  
1 21949U 92023A   26084.51647972  .00000163  00000+0  52892-4 0  9991
2 21949  85.0054 122.3082 0001929  68.4940 291.6458 14.32372917 97054
COSMOS 2219             
1 22219U 92076A   26084.15409897 -.00000206  00000+0 -83461-4 0  9998
2 22219  71.0632 345.7440 0018094 184.7398 175.3556 14.14092078720564
SL-16 R/B               
1 22220U 92076B   26084.50123550  .00000078  00000+0  62587-4 0  9999
2 22220  71.0003 155.0699 0010642  66.7709 305.0722 14.16863713724073
COSMOS 2221             
1 22236U 92080A   26084.48707815  .00001919  00000+0  16738-3 0  9991
2 22236  82.5006 263.9439 0015336 135.7275 224.5177 14.96262442783154
SL-16 R/B               
1 22285U 92093B   26084.42827111  .00000316  00000+0  18634-3 0  9992
2 22285  71.0234 331.2290 0006389 278.2176  81.8222 14.15452517715389
COSMOS 2228             
1 22286U 92094A   26084.62655028  .00002157  00000+0  18355-3 0  9997
2 22286  82.5182 222.0506 0016690 246.2639 113.6833 14.97268912778443
SL-16 R/B               
1 22566U 93016B   26084.54091827 -.00000164  00000+0 -59640-4 0  9996
2 22566  71.0079 181.8912 0012347 293.6094  66.3732 14.15305605704410
COSMOS 2242             
1 22626U 93024A   26084.41504669  .00002239  00000+0  19399-3 0  9990
2 22626  82.5159 251.6702 0014945 250.8336 109.1268 14.96613421782745
